{"type": "FeatureCollection", "features": [ {"type": "Feature", "properties": {"norad_id": 35480, "name": "IRIDIUM 33 DEB", "group": "iridium-33-debris", "lat": -32.13609948576959, "lon": 24.03255869517623, "alt_km": 741.5979827478031, "timestamp": "2025-12-09T11:33:55.186146+00:00", "meta": {"OBJECT_NAME": "IRIDIUM 33 DEB", "OBJECT_ID": "1997-051QA", "EPOCH": "2025-12-01T21:29:27.496896", "MEAN_MOTION": 14.49686619, "ECCENTRICITY": 0.00155495, "INCLINATION": 86.3575, "RA_OF_ASC_NODE": 29.6125, "ARG_OF_PERICENTER": 136.7189, "MEAN_ANOMALY": 223.524, "EPHEMERIS_TYPE": 0, "CLASSIFICATION_TYPE": "U", "NORAD_CAT_ID": 35480, "ELEMENT_SET_NO": 999, "REV_AT_EPOCH": 86874, "BSTAR": 0.000651702, "MEAN_MOTION_DOT": 2.53e-05, "MEAN_MOTION_DDOT": 0}, "tle": {"line1": "1 35480U 97051QA  25335.89545714  .00002530  00000+0  65170-3 0  9994", "line2": "2 35480  86.3575  29.6125 0015549 136.7189 223.5240 14.49686619868745"}}, "geometry": {"type": "Point", "coordinates": [24.03255869517623, -32.13609948576959]}}, {"type": "Feature", "properties": {"norad_id": 35484, "name": "IRIDIUM 33 DEB", "group": "iridium-33-debris", "lat": -76.77336263600714, "lon": -21.442892512622485, "alt_km": 593.0116899007744, "timestamp": "2025-12-09T11:33:55.186156+00:00", "meta": {"OBJECT_NAME": "IRIDIUM 33 DEB", "OBJECT_ID": "1997-051QE", "EPOCH": "2025-12-08T18:16:45.445440", "MEAN_MOTION": 14.98255885, "ECCENTRICITY": 0.00231436, "INCLINATION": 86.3606, "RA_OF_ASC_NODE": 354.6057, "ARG_OF_PERICENTER": 138.3484, "MEAN_ANOMALY": 221.9516, "EPHEMERIS_TYPE": 0, "CLASSIFICATION_TYPE": "U", "NORAD_CAT_ID": 35484, "ELEMENT_SET_NO": 999, "REV_AT_EPOCH": 61956, "BSTAR": 0.0033289161, "MEAN_MOTION_DOT": 0.00039967, "MEAN_MOTION_DDOT": 0}, "tle": {"line1": "1 35484U 97051QE  25342.76163710  .00039967  00000+0  33289-2 0  9993", "line2": "2 35484  86.3606 354.6057 0023143 138.3484 221.9516 14.98255885619567"}}, "geometry": {"type": "Point", "coordinates": [-21.442892512622485, -76.77336263600714]}}, {"type": "Feature", "properties": {"norad_id": 35488, "name": "IRIDIUM 33 DEB", "group": "iridium-33-debris", "lat": -33.4717808792997, "lon": 124.81554086594107, "alt_km": 646.3959398017332, "timestamp": "2025-12-09T11:33:55.186166+00:00", "meta": {"OBJECT_NAME": "IRIDIUM 33 DEB", "OBJECT_ID": "1997-051QJ", "EPOCH": "2025-12-08T21:39:05.105088", "MEAN_MOTION": 14.8290127, "ECCENTRICITY": 0.0030312, "INCLINATION": 86.3246, "RA_OF_ASC_NODE": 302.6469, "ARG_OF_PERICENTER": 55.0525, "MEAN_ANOMALY": 305.3538, "EPHEMERIS_TYPE": 0, "CLASSIFICATION_TYPE": "U", "NORAD_CAT_ID": 35488, "ELEMENT_SET_NO": 999, "REV_AT_EPOCH": 88209, "BSTAR": 0.0019549, "MEAN_MOTION_DOT": 0.00016018, "MEAN_MOTION_DDOT": 0}, "tle": {"line1": "1 35488U 97051QJ  25342.90214242  .00016018  00000+0  19549-2 0  9995", "line2": "2 35488  86.3246 302.6469 0030312  55.0525 305.3538 14.82901270882098"}}, "geometry": {"type": "Point", "coordinates": [124.81554086594107, -33.4717808792997]}}, {"type": "Feature", "properties": {"norad_id": 35616, "name": "IRIDIUM 33 DEB", "group": "iridium-33-debris", "lat": 26.87489264628062, "lon": -10.896744914034795, "alt_km": 628.8222134470152, "timestamp": "2025-12-09T11:33:55.186176+00:00", "meta": {"OBJECT_NAME": "IRIDIUM 33 DEB", "OBJECT_ID": "1997-051QN", "EPOCH": "2025-12-08T11:07:50.751840", "MEAN_MOTION": 14.81642207, "ECCENTRICITY": 0.00095137, "INCLINATION": 86.3551, "RA_OF_ASC_NODE": 347.7164, "ARG_OF_PERICENTER": 179.1989, "MEAN_ANOMALY": 180.925, "EPHEMERIS_TYPE": 0, "CLASSIFICATION_TYPE": "U", "NORAD_CAT_ID": 35616, "ELEMENT_SET_NO": 999, "REV_AT_EPOCH": 87511, "BSTAR": 0.0020633393, "MEAN_MOTION_DOT": 0.00016284, "MEAN_MOTION_DDOT": 0}, "tle": {"line1": "1 35616U 97051QN  25342.46378185  .00016284  00000+0  20633-2 0  9997", "line2": "2 35616  86.3551 347.7164 0009513 179.1989 180.9250 14.81642207875117"}}, "geometry": {"type": "Point", "coordinates": [-10.896744914034795, 26.87489264628062]}}, {"type": "Feature", "properties": {"norad_id": 35618, "name": "IRIDIUM 33 DEB", "group": "iridium-33-debris", "lat": 41.52677197504364, "lon": 171.67768700420854, "alt_km": 720.7583858096677, "timestamp": "2025-12-09T11:33:55.186186+00:00", "meta": {"OBJECT_NAME": "IRIDIUM 33 DEB", "OBJECT_ID": "1997-051QQ", "EPOCH": "2025-12-05T07:42:53.148672", "MEAN_MOTION": 14.52258119, "ECCENTRICITY": 0.00302089, "INCLINATION": 86.3407, "RA_OF_ASC_NODE": 356.7447, "ARG_OF_PERICENTER": 46.3254, "MEAN_ANOMALY": 314.0448, "EPHEMERIS_TYPE": 0, "CLASSIFICATION_TYPE": "U", "NORAD_CAT_ID": 35618, "ELEMENT_SET_NO": 999, "REV_AT_EPOCH": 65286, "BSTAR": 0.00091388234, "MEAN_MOTION_DOT": 3.753e-05, "MEAN_MOTION_DDOT": 0}, "tle": {"line1": "1 35618U 97051QQ  25339.32144848  .00003753  00000+0  91388-3 0  9990", "line2": "2 35618  86.3407 356.7447 0030208  46.3254 314.0448 14.52258119652865"}}, "geometry": {"type": "Point", "coordinates": [171.67768700420854, 41.52677197504364]}}, {"type": "Feature", "properties": {"norad_id": 35620, "name": "IRIDIUM 33 DEB", "group": "iridium-33-debris", "lat": -70.92789285293149, "lon": -151.70087684631852, "alt_km": 676.4644793268426, "timestamp": "2025-12-09T11:33:55.186196+00:00", "meta": {"OBJECT_NAME": "IRIDIUM 33 DEB", "OBJECT_ID": "1997-051QS", "EPOCH": "2025-12-09T01:52:11.734176", "MEAN_MOTION": 14.37850667, "ECCENTRICITY": 0.0142612, "INCLINATION": 86.3875, "RA_OF_ASC_NODE": 218.998, "ARG_OF_PERICENTER": 271.0752, "MEAN_ANOMALY": 87.411, "EPHEMERIS_TYPE": 0, "CLASSIFICATION_TYPE": "U", "NORAD_CAT_ID": 35620, "ELEMENT_SET_NO": 999, "REV_AT_EPOCH": 59913, "BSTAR": 0.0064941, "MEAN_MOTION_DOT": 0.00022091, "MEAN_MOTION_DDOT": 0}, "tle": {"line1": "1 35620U 97051QS  25343.07791359  .00022091  00000+0  64941-2 0  9995", "line2": "2 35620  86.3875 218.9980 0142612 271.0752  87.4110 14.37850667599137"}}, "geometry": {"type": "Point", "coordinates": [-151.70087684631852, -70.92789285293149]}}, {"type": "Feature", "properties": {"norad_id": 35622, "name": "IRIDIUM 33 DEB", "group": "iridium-33-debris", "lat": -43.80091155294167, "lon": -98.44193907688722, "alt_km": 556.4046919809434, "timestamp": "2025-12-09T11:33:55.186206+00:00", "meta": {"OBJECT_NAME": "IRIDIUM 33 DEB", "OBJECT_ID": "1997-051QU", "EPOCH": "2025-12-08T18:19:37.394400", "MEAN_MOTION": 15.03927644, "ECCENTRICITY": 0.00075851, "INCLINATION": 86.2056, "RA_OF_ASC_NODE": 265.5603, "ARG_OF_PERICENTER": 342.656, "MEAN_ANOMALY": 47.239, "EPHEMERIS_TYPE": 0, "CLASSIFICATION_TYPE": "U", "NORAD_CAT_ID": 35622, "ELEMENT_SET_NO": 999, "REV_AT_EPOCH": 87300, "BSTAR": 0.0061817818, "MEAN_MOTION_DOT": 0.00086206, "MEAN_MOTION_DDOT": 0}, "tle": {"line1": "1 35622U 97051QU  25342.76362725  .00086206  00000+0  61818-2 0  9991", "line2": "2 35622  86.2056 265.5603 0007585 342.6560  47.2390 15.03927644873009"}}, "geometry": {"type": "Point", "coordinates": [-98.44193907688722, -43.80091155294167]}}, {"type": "Feature", "properties": {"norad_id": 35628, "name": "IRIDIUM 33 DEB", "group": "iridium-33-debris", "lat": -36.44959389213349, "lon": -166.7747963563442, "alt_km": 681.1700185119562, "timestamp": "2025-12-09T11:33:55.186217+00:00", "meta": {"OBJECT_NAME": "IRIDIUM 33 DEB", "OBJECT_ID": "1997-051RA", "EPOCH": "2025-12-08T19:51:11.189376", "MEAN_MOTION": 14.67493768, "ECCENTRICITY": 0.00109309, "INCLINATION": 86.3576, "RA_OF_ASC_NODE": 10.8203, "ARG_OF_PERICENTER": 356.3974, "MEAN_ANOMALY": 3.7159, "EPHEMERIS_TYPE": 0, "CLASSIFICATION_TYPE": "U", "NORAD_CAT_ID": 35628, "ELEMENT_SET_NO": 999, "REV_AT_EPOCH": 86389, "BSTAR": 0.0020097942, "MEAN_MOTION_DOT": 0.00011424, "MEAN_MOTION_DDOT": 0}, "tle": {"line1": "1 35628U 97051RA  25342.82721284  .00011424  00000+0  20098-2 0  9998", "line2": "2 35628  86.3576  10.8203 0010930 356.3974   3.7159 14.67493768863899"}}, "geometry": {"type": "Point", "coordinates": [-166.7747963563442, -36.44959389213349]}}, {"type": "Feature", "properties": {"norad_id": 35631, "name": "IRIDIUM 33 DEB", "group": "iridium-33-debris", "lat": -10.626268258536113, "lon": 21.697296361916255, "alt_km": 748.5277086539318, "timestamp": "2025-12-09T11:33:55.186227+00:00", "meta": {"OBJECT_NAME": "IRIDIUM 33 DEB", "OBJECT_ID": "1997-051RD", "EPOCH": "2025-12-06T21:23:47.071392", "MEAN_MOTION": 14.47286545, "ECCENTRICITY": 0.00185223, "INCLINATION": 86.3689, "RA_OF_ASC_NODE": 23.4943, "ARG_OF_PERICENTER": 135.5581, "MEAN_ANOMALY": 46.1978, "EPHEMERIS_TYPE": 0, "CLASSIFICATION_TYPE": "U", "NORAD_CAT_ID": 35631, "ELEMENT_SET_NO": 999, "REV_AT_EPOCH": 87112, "BSTAR": 0.00062002851, "MEAN_MOTION_DOT": 2.292e-05, "MEAN_MOTION_DDOT": 0}, "tle": {"line1": "1 35631U 97051RD  25340.89151703  .00002292  00000+0  62003-3 0  9996", "line2": "2 35631  86.3689  23.4943 0018522 135.5581  46.1978 14.47286545871121"}}, "geometry": {"type": "Point", "coordinates": [21.697296361916255, -10.626268258536113]}}, {"type": "Feature", "properties": {"norad_id": 35680, "name": "IRIDIUM 33 DEB", "group": "iridium-33-debris", "lat": -86.06011176846403, "lon": -75.14856767345503, "alt_km": 727.8084849117513, "timestamp": "2025-12-09T11:33:55.186237+00:00", "meta": {"OBJECT_NAME": "IRIDIUM 33 DEB", "OBJECT_ID": "1997-051RJ", "EPOCH": "2025-12-09T01:58:45.777792", "MEAN_MOTION": 14.2081535, "ECCENTRICITY": 0.0150326, "INCLINATION": 86.1019, "RA_OF_ASC_NODE": 23.1412, "ARG_OF_PERICENTER": 290.2359, "MEAN_ANOMALY": 98.0628, "EPHEMERIS_TYPE": 0, "CLASSIFICATION_TYPE": "U", "NORAD_CAT_ID": 35680, "ELEMENT_SET_NO": 999, "REV_AT_EPOCH": 60649, "BSTAR": 0.0045034, "MEAN_MOTION_DOT": 0.00010924, "MEAN_MOTION_DDOT": 0}, "tle": {"line1": "1 35680U 97051RJ  25343.08247428  .00010924  00000+0  45034-2 0  9999", "line2": "2 35680  86.1019  23.1412 0150326 290.2359  98.0628 14.20815350606496"}}, "geometry": {"type": "Point", "coordinates": [-75.14856767345503, -86.06011176846403]}}]}